STARLINK-4053           
1 53536U 22101K   25124.09710324  .00014986  00000+0  95758-3 0  9992
2 53536  53.2164  13.8559 0001707  85.5865 274.5322 15.08842851149560
STARLINK-4120           
1 53537U 22101L   25123.99041172  .00000134  00000+0  26523-4 0  9994
2 53537  53.2198  24.3844 0001653  87.0604 273.0577 15.08834483149412
STARLINK-4118           
1 53538U 22101M   25124.10077833 -.00000569  00000+0 -17649-4 0  9995
2 53538  53.2184  13.9176 0001335  89.8971 270.2174 15.08837717149565
STARLINK-4123           
1 53539U 22101N   25124.11825881 -.00001203  00000+0 -57534-4 0  9994
2 53539  53.2185  23.8377 0001415  88.7339 271.3815 15.08833885149437
STARLINK-4486           
1 53540U 22101P   25124.06498405 -.00001040  00000+0 -47272-4 0  9995
2 53540  53.2190  14.4354 0001448  87.4164 272.6993 15.08829248149556
STARLINK-4485           
1 53541U 22101Q   25124.04466165 -.00001022  00000+0 -46123-4 0  9996
2 53541  53.2175  24.1713 0001453  90.0464 270.0695 15.08833166149427
STARLINK-4489           
1 53542U 22101R   25123.95725457 -.00000147  00000+0  88438-5 0  9990
2 53542  53.2195  14.5607 0001408  78.2984 281.8166 15.08838260150234
STARLINK-4297           
1 53543U 22101S   25124.10442433  .00004316  00000+0  28880-3 0  9993
2 53543  53.2171  13.9689 0001484  97.7790 262.3370 15.08877742149560
STARLINK-4303           
1 53544U 22101T   25123.88365892 -.00000228  00000+0  37972-5 0  9994
2 53544  53.2181  14.8914 0001908  82.9821 277.1388 15.08834000150201
STARLINK-4475           
1 53545U 22101U   25123.96093816 -.00001017  00000+0 -45785-4 0  9996
2 53545  53.2201  14.5427 0001698  87.6475 272.4711 15.08833852150239
STARLINK-4477           
1 53546U 22101V   25123.96548654 -.00001129  00000+0 -52879-4 0  9998
2 53546  53.2204   4.0609 0001609 115.3584 244.7575 15.08832266149697
STARLINK-4474           
1 53547U 22101W   25123.95357864 -.00000287  00000+0  28122-7 0  9999
2 53547  53.2181  14.5768 0001269  89.3822 270.7315 15.08830910150216
STARLINK-4513           
1 53548U 22101X   25124.07133615  .00005060  00000+0  33586-3 0  9999
2 53548  53.2169  14.0513 0001467  94.1081 266.0079 15.08828237149567
STARLINK-4518           
1 53550U 22101Z   25123.86894690 -.00001669  00000+0 -86818-4 0  9995
2 53550  53.2193  14.9584 0001440  88.6947 271.4211 15.08823988150191
