[
  {
    "OBJECT_NAME": "STARLINK-4053",
    "OBJECT_ID": "2022-101K",
    "EPOCH": "2025-05-04T02:19:49.719936",
    "MEAN_MOTION": 15.08842851,
    "ECCENTRICITY": 0.0001707,
    "INCLINATION": 53.2164,
    "RA_OF_ASC_NODE": 13.8559,
    "ARG_OF_PERICENTER": 85.5865,
    "MEAN_ANOMALY": 274.5322,
    "EPHEMERIS_TYPE": 0,
    "CLASSIFICATION_TYPE": "U",
    "NORAD_CAT_ID": 53536,
    "ELEMENT_SET_NO": 999,
    "REV_AT_EPOCH": 14956,
    "BSTAR": 0.00095758,
    "MEAN_MOTION_DOT": 0.00014986,
    "MEAN_MOTION_DDOT": 0
  },
  {
    "OBJECT_NAME": "STARLINK-4120",
    "OBJECT_ID": "2022-101L",
    "EPOCH": "2025-05-03T23:46:11.572608",
    "MEAN_MOTION": 15.08834483,
    "ECCENTRICITY": 0.0001653,
    "INCLINATION": 53.2198,
    "RA_OF_ASC_NODE": 24.3844,
    "ARG_OF_PERICENTER": 87.0604,
    "MEAN_ANOMALY": 273.0577,
    "EPHEMERIS_TYPE": 0,
    "CLASSIFICATION_TYPE": "U",
    "NORAD_CAT_ID": 53537,
    "ELEMENT_SET_NO": 999,
    "REV_AT_EPOCH": 14941,
    "BSTAR": 2.6523e-05,
    "MEAN_MOTION_DOT": 1.34e-06,
    "MEAN_MOTION_DDOT": 0
  },
  {
    "OBJECT_NAME": "STARLINK-4118",
    "OBJECT_ID": "2022-101M",
    "EPOCH": "2025-05-04T02:25:07.247712",
    "MEAN_MOTION": 15.08837717,
    "ECCENTRICITY": 0.0001335,
    "INCLINATION": 53.2184,
    "RA_OF_ASC_NODE": 13.9176,
    "ARG_OF_PERICENTER": 89.8971,
    "MEAN_ANOMALY": 270.2174,
    "EPHEMERIS_TYPE": 0,
    "CLASSIFICATION_TYPE": "U",
    "NORAD_CAT_ID": 53538,
    "ELEMENT_SET_NO": 999,
    "REV_AT_EPOCH": 14956,
    "BSTAR": -1.7649e-05,
    "MEAN_MOTION_DOT": -5.69e-06,
    "MEAN_MOTION_DDOT": 0
  },
  {
    "OBJECT_NAME": "STARLINK-4123",
    "OBJECT_ID": "2022-101N",
    "EPOCH": "2025-05-04T02:50:17.561184",
    "MEAN_MOTION": 15.08833885,
    "ECCENTRICITY": 0.0001415,
    "INCLINATION": 53.2185,
    "RA_OF_ASC_NODE": 23.8377,
    "ARG_OF_PERICENTER": 88.7339,
    "MEAN_ANOMALY": 271.3815,
    "EPHEMERIS_TYPE": 0,
    "CLASSIFICATION_TYPE": "U",
    "NORAD_CAT_ID": 53539,
    "ELEMENT_SET_NO": 999,
    "REV_AT_EPOCH": 14943,
    "BSTAR": -5.7534e-05,
    "MEAN_MOTION_DOT": -1.203e-05,
    "MEAN_MOTION_DDOT": 0
  },
  {
    "OBJECT_NAME": "STARLINK-4486",
    "OBJECT_ID": "2022-101P",
    "EPOCH": "2025-05-04T01:33:34.621920",
    "MEAN_MOTION": 15.08829248,
    "ECCENTRICITY": 0.0001448,
    "INCLINATION": 53.219,
    "RA_OF_ASC_NODE": 14.4354,
    "ARG_OF_PERICENTER": 87.4164,
    "MEAN_ANOMALY": 272.6993,
    "EPHEMERIS_TYPE": 0,
    "CLASSIFICATION_TYPE": "U",
    "NORAD_CAT_ID": 53540,
    "ELEMENT_SET_NO": 999,
    "REV_AT_EPOCH": 14955,
    "BSTAR": -4.7272e-05,
    "MEAN_MOTION_DOT": -1.04e-05,
    "MEAN_MOTION_DDOT": 0
  },
  {
    "OBJECT_NAME": "STARLINK-4485",
    "OBJECT_ID": "2022-101Q",
    "EPOCH": "2025-05-04T01:04:18.766560",
    "MEAN_MOTION": 15.08833166,
    "ECCENTRICITY": 0.0001453,
    "INCLINATION": 53.2175,
    "RA_OF_ASC_NODE": 24.1713,
    "ARG_OF_PERICENTER": 90.0464,
    "MEAN_ANOMALY": 270.0695,
    "EPHEMERIS_TYPE": 0,
    "CLASSIFICATION_TYPE": "U",
    "NORAD_CAT_ID": 53541,
    "ELEMENT_SET_NO": 999,
    "REV_AT_EPOCH": 14942,
    "BSTAR": -4.6123e-05,
    "MEAN_MOTION_DOT": -1.022e-05,
    "MEAN_MOTION_DDOT": 0
  },
  {
    "OBJECT_NAME": "STARLINK-4489",
    "OBJECT_ID": "2022-101R",
    "EPOCH": "2025-05-03T22:58:26.794848",
    "MEAN_MOTION": 15.0883826,
    "ECCENTRICITY": 0.0001408,
    "INCLINATION": 53.2195,
    "RA_OF_ASC_NODE": 14.5607,
    "ARG_OF_PERICENTER": 78.2984,
    "MEAN_ANOMALY": 281.8166,
    "EPHEMERIS_TYPE": 0,
    "CLASSIFICATION_TYPE": "U",
    "NORAD_CAT_ID": 53542,
    "ELEMENT_SET_NO": 999,
    "REV_AT_EPOCH": 15023,
    "BSTAR": 8.8438e-06,
    "MEAN_MOTION_DOT": -1.47e-06,
    "MEAN_MOTION_DDOT": 0
  },
  {
    "OBJECT_NAME": "STARLINK-4297",
    "OBJECT_ID": "2022-101S",
    "EPOCH": "2025-05-04T02:30:22.262112",
    "MEAN_MOTION": 15.08877742,
    "ECCENTRICITY": 0.0001484,
    "INCLINATION": 53.2171,
    "RA_OF_ASC_NODE": 13.9689,
    "ARG_OF_PERICENTER": 97.779,
    "MEAN_ANOMALY": 262.337,
    "EPHEMERIS_TYPE": 0,
    "CLASSIFICATION_TYPE": "U",
    "NORAD_CAT_ID": 53543,
    "ELEMENT_SET_NO": 999,
    "REV_AT_EPOCH": 14956,
    "BSTAR": 0.0002888,
    "MEAN_MOTION_DOT": 4.316e-05,
    "MEAN_MOTION_DDOT": 0
  },
  {
    "OBJECT_NAME": "STARLINK-4303",
    "OBJECT_ID": "2022-101T",
    "EPOCH": "2025-05-03T21:12:28.130688",
    "MEAN_MOTION": 15.08834,
    "ECCENTRICITY": 0.0001908,
    "INCLINATION": 53.2181,
    "RA_OF_ASC_NODE": 14.8914,
    "ARG_OF_PERICENTER": 82.9821,
    "MEAN_ANOMALY": 277.1388,
    "EPHEMERIS_TYPE": 0,
    "CLASSIFICATION_TYPE": "U",
    "NORAD_CAT_ID": 53544,
    "ELEMENT_SET_NO": 999,
    "REV_AT_EPOCH": 15020,
    "BSTAR": 3.7972e-06,
    "MEAN_MOTION_DOT": -2.28e-06,
    "MEAN_MOTION_DDOT": 0
  },
  {
    "OBJECT_NAME": "STARLINK-4475",
    "OBJECT_ID": "2022-101U",
    "EPOCH": "2025-05-03T23:03:45.057024",
    "MEAN_MOTION": 15.08833852,
    "ECCENTRICITY": 0.0001698,
    "INCLINATION": 53.2201,
    "RA_OF_ASC_NODE": 14.5427,
    "ARG_OF_PERICENTER": 87.6475,
    "MEAN_ANOMALY": 272.4711,
    "EPHEMERIS_TYPE": 0,
    "CLASSIFICATION_TYPE": "U",
    "NORAD_CAT_ID": 53545,
    "ELEMENT_SET_NO": 999,
    "REV_AT_EPOCH": 15023,
    "BSTAR": -4.5785e-05,
    "MEAN_MOTION_DOT": -1.017e-05,
    "MEAN_MOTION_DDOT": 0
  },
  {
    "OBJECT_NAME": "STARLINK-4477",
    "OBJECT_ID": "2022-101V",
    "EPOCH": "2025-05-03T23:10:18.037056",
    "MEAN_MOTION": 15.08832266,
    "ECCENTRICITY": 0.0001609,
    "INCLINATION": 53.2204,
    "RA_OF_ASC_NODE": 4.0609,
    "ARG_OF_PERICENTER": 115.3584,
    "MEAN_ANOMALY": 244.7575,
    "EPHEMERIS_TYPE": 0,
    "CLASSIFICATION_TYPE": "U",
    "NORAD_CAT_ID": 53546,
    "ELEMENT_SET_NO": 999,
    "REV_AT_EPOCH": 14969,
    "BSTAR": -5.2879e-05,
    "MEAN_MOTION_DOT": -1.129e-05,
    "MEAN_MOTION_DDOT": 0
  },
  {
    "OBJECT_NAME": "STARLINK-4474",
    "OBJECT_ID": "2022-101W",
    "EPOCH": "2025-05-03T22:53:09.194496",
    "MEAN_MOTION": 15.0883091,
    "ECCENTRICITY": 0.0001269,
    "INCLINATION": 53.2181,
    "RA_OF_ASC_NODE": 14.5768,
    "ARG_OF_PERICENTER": 89.3822,
    "MEAN_ANOMALY": 270.7315,
    "EPHEMERIS_TYPE": 0,
    "CLASSIFICATION_TYPE": "U",
    "NORAD_CAT_ID": 53547,
    "ELEMENT_SET_NO": 999,
    "REV_AT_EPOCH": 15021,
    "BSTAR": 2.8122e-08,
    "MEAN_MOTION_DOT": -2.87e-06,
    "MEAN_MOTION_DDOT": 0
  },
  {
    "OBJECT_NAME": "STARLINK-4513",
    "OBJECT_ID": "2022-101X",
    "EPOCH": "2025-05-04T01:42:43.443360",
    "MEAN_MOTION": 15.08828237,
    "ECCENTRICITY": 0.0001467,
    "INCLINATION": 53.2169,
    "RA_OF_ASC_NODE": 14.0513,
    "ARG_OF_PERICENTER": 94.1081,
    "MEAN_ANOMALY": 266.0079,
    "EPHEMERIS_TYPE": 0,
    "CLASSIFICATION_TYPE": "U",
    "NORAD_CAT_ID": 53548,
    "ELEMENT_SET_NO": 999,
    "REV_AT_EPOCH": 14956,
    "BSTAR": 0.00033586,
    "MEAN_MOTION_DOT": 5.06e-05,
    "MEAN_MOTION_DDOT": 0
  },
  {
    "OBJECT_NAME": "STARLINK-4518",
    "OBJECT_ID": "2022-101Z",
    "EPOCH": "2025-05-03T20:51:17.012160",
    "MEAN_MOTION": 15.08823988,
    "ECCENTRICITY": 0.000144,
    "INCLINATION": 53.2193,
    "RA_OF_ASC_NODE": 14.9584,
    "ARG_OF_PERICENTER": 88.6947,
    "MEAN_ANOMALY": 271.4211,
    "EPHEMERIS_TYPE": 0,
    "CLASSIFICATION_TYPE": "U",
    "NORAD_CAT_ID": 53550,
    "ELEMENT_SET_NO": 999,
    "REV_AT_EPOCH": 15019,
    "BSTAR": -8.6818e-05,
    "MEAN_MOTION_DOT": -1.669e-05,
    "MEAN_MOTION_DDOT": 0
  }
]